ORBCOMM FM05            
1 25117U 97084F   25137.47006743  .00001418  00000+0  43579-3 0  9997
2 25117  45.0134 155.5292 0001610 339.7691  20.3096 14.45853609436165
ORBCOMM FM06            
1 25118U 97084G   25137.49496075  .00001560  00000+0  47428-3 0  9996
2 25118  45.0125 155.1810 0001734 303.6699 213.5286 14.45983595437080
ORBCOMM FM07            
1 25119U 97084H   25137.47810470  .00001421  00000+0  43568-3 0  9991
2 25119  45.0119 156.0303 0002182 357.4785   2.6055 14.45974778437075
ORBCOMM FM03            
1 25158U 98007B   25137.58047642  .00001336  00000+0  51438-3 0  9995
2 25158 107.9649  72.7299 0046749 302.2251  57.4362 14.34437996419652
ORBCOMM FM04            
1 25159U 98007C   25137.50027952  .00001332  00000+0  51142-3 0  9998
2 25159 107.9637  75.7650 0042501 299.8158  59.8760 14.34690214419824
ORBCOMM FM17            
1 25413U 98046A   25137.41954518  .00001082  00000+0  42540-3 0  9995
2 25413  44.9956  42.8063 0003286  36.9661 323.1412 14.35044790398752
ORBCOMM FM18            
1 25414U 98046B   25137.51503051  .00001462  00000+0  52016-3 0  9990
2 25414  44.9940 320.5724 0005222 131.0410 229.0890 14.38488880399836
ORBCOMM FM19            
1 25415U 98046C   25137.53340361  .00001445  00000+0  51692-3 0  9996
2 25415  44.9952 322.4362 0003967 125.6445 266.6438 14.38296167399997
