<?xml version="1.0" encoding="UTF-8"?>
<ndm xmlns:xsi="http://www.w3.org/2001/XMLSchema-instance" xsi:noNamespaceSchemaLocation="https://sanaregistry.org/r/ndmxml_unqualified/ndmxml-2.0.0-master-2.0.xsd">
<omm id="CCSDS_OMM_VERS" version="2.0">
<header><CREATION_DATE/><ORIGINATOR/></header><body><segment><metadata><OBJECT_NAME>ORBCOMM FM05</OBJECT_NAME><OBJECT_ID>1997-084F</OBJECT_ID><CENTER_NAME>EARTH</CENTER_NAME><REF_FRAME>TEME</REF_FRAME><TIME_SYSTEM>UTC</TIME_SYSTEM><MEAN_ELEMENT_THEORY>SGP4</MEAN_ELEMENT_THEORY></metadata><data><meanElements><EPOCH>2025-05-17T11:16:53.825952</EPOCH><MEAN_MOTION>14.45853609</MEAN_MOTION><ECCENTRICITY>.000161</ECCENTRICITY><INCLINATION>45.0134</INCLINATION><RA_OF_ASC_NODE>155.5292</RA_OF_ASC_NODE><ARG_OF_PERICENTER>339.7691</ARG_OF_PERICENTER><MEAN_ANOMALY>20.3096</MEAN_ANOMALY></meanElements><tleParameters><EPHEMERIS_TYPE>0</EPHEMERIS_TYPE><CLASSIFICATION_TYPE>U</CLASSIFICATION_TYPE><NORAD_CAT_ID>25117</NORAD_CAT_ID><ELEMENT_SET_NO>999</ELEMENT_SET_NO><REV_AT_EPOCH>43616</REV_AT_EPOCH><BSTAR>.43579E-3</BSTAR><MEAN_MOTION_DOT>.1418E-4</MEAN_MOTION_DOT><MEAN_MOTION_DDOT>0</MEAN_MOTION_DDOT></tleParameters></data></segment></body></omm>
<omm id="CCSDS_OMM_VERS" version="2.0">
<header><CREATION_DATE/><ORIGINATOR/></header><body><segment><metadata><OBJECT_NAME>ORBCOMM FM06</OBJECT_NAME><OBJECT_ID>1997-084G</OBJECT_ID><CENTER_NAME>EARTH</CENTER_NAME><REF_FRAME>TEME</REF_FRAME><TIME_SYSTEM>UTC</TIME_SYSTEM><MEAN_ELEMENT_THEORY>SGP4</MEAN_ELEMENT_THEORY></metadata><data><meanElements><EPOCH>2025-05-17T11:52:44.608800</EPOCH><MEAN_MOTION>14.45983595</MEAN_MOTION><ECCENTRICITY>.0001734</ECCENTRICITY><INCLINATION>45.0125</INCLINATION><RA_OF_ASC_NODE>155.1810</RA_OF_ASC_NODE><ARG_OF_PERICENTER>303.6699</ARG_OF_PERICENTER><MEAN_ANOMALY>213.5286</MEAN_ANOMALY></meanElements><tleParameters><EPHEMERIS_TYPE>0</EPHEMERIS_TYPE><CLASSIFICATION_TYPE>U</CLASSIFICATION_TYPE><NORAD_CAT_ID>25118</NORAD_CAT_ID><ELEMENT_SET_NO>999</ELEMENT_SET_NO><REV_AT_EPOCH>43708</REV_AT_EPOCH><BSTAR>.47428E-3</BSTAR><MEAN_MOTION_DOT>.156E-4</MEAN_MOTION_DOT><MEAN_MOTION_DDOT>0</MEAN_MOTION_DDOT></tleParameters></data></segment></body></omm>
<omm id="CCSDS_OMM_VERS" version="2.0">
<header><CREATION_DATE/><ORIGINATOR/></header><body><segment><metadata><OBJECT_NAME>ORBCOMM FM07</OBJECT_NAME><OBJECT_ID>1997-084H</OBJECT_ID><CENTER_NAME>EARTH</CENTER_NAME><REF_FRAME>TEME</REF_FRAME><TIME_SYSTEM>UTC</TIME_SYSTEM><MEAN_ELEMENT_THEORY>SGP4</MEAN_ELEMENT_THEORY></metadata><data><meanElements><EPOCH>2025-05-17T11:28:28.246080</EPOCH><MEAN_MOTION>14.45974778</MEAN_MOTION><ECCENTRICITY>.0002182</ECCENTRICITY><INCLINATION>45.0119</INCLINATION><RA_OF_ASC_NODE>156.0303</RA_OF_ASC_NODE><ARG_OF_PERICENTER>357.4785</ARG_OF_PERICENTER><MEAN_ANOMALY>2.6055</MEAN_ANOMALY></meanElements><tleParameters><EPHEMERIS_TYPE>0</EPHEMERIS_TYPE><CLASSIFICATION_TYPE>U</CLASSIFICATION_TYPE><NORAD_CAT_ID>25119</NORAD_CAT_ID><ELEMENT_SET_NO>999</ELEMENT_SET_NO><REV_AT_EPOCH>43707</REV_AT_EPOCH><BSTAR>.43568E-3</BSTAR><MEAN_MOTION_DOT>.1421E-4</MEAN_MOTION_DOT><MEAN_MOTION_DDOT>0</MEAN_MOTION_DDOT></tleParameters></data></segment></body></omm>
<omm id="CCSDS_OMM_VERS" version="2.0">
<header><CREATION_DATE/><ORIGINATOR/></header><body><segment><metadata><OBJECT_NAME>ORBCOMM FM03</OBJECT_NAME><OBJECT_ID>1998-007B</OBJECT_ID><CENTER_NAME>EARTH</CENTER_NAME><REF_FRAME>TEME</REF_FRAME><TIME_SYSTEM>UTC</TIME_SYSTEM><MEAN_ELEMENT_THEORY>SGP4</MEAN_ELEMENT_THEORY></metadata><data><meanElements><EPOCH>2025-05-17T13:55:53.162688</EPOCH><MEAN_MOTION>14.34437996</MEAN_MOTION><ECCENTRICITY>.0046749</ECCENTRICITY><INCLINATION>107.9649</INCLINATION><RA_OF_ASC_NODE>72.7299</RA_OF_ASC_NODE><ARG_OF_PERICENTER>302.2251</ARG_OF_PERICENTER><MEAN_ANOMALY>57.4362</MEAN_ANOMALY></meanElements><tleParameters><EPHEMERIS_TYPE>0</EPHEMERIS_TYPE><CLASSIFICATION_TYPE>U</CLASSIFICATION_TYPE><NORAD_CAT_ID>25158</NORAD_CAT_ID><ELEMENT_SET_NO>999</ELEMENT_SET_NO><REV_AT_EPOCH>41965</REV_AT_EPOCH><BSTAR>.51438E-3</BSTAR><MEAN_MOTION_DOT>.1336E-4</MEAN_MOTION_DOT><MEAN_MOTION_DDOT>0</MEAN_MOTION_DDOT></tleParameters></data></segment></body></omm>
<omm id="CCSDS_OMM_VERS" version="2.0">
<header><CREATION_DATE/><ORIGINATOR/></header><body><segment><metadata><OBJECT_NAME>ORBCOMM FM04</OBJECT_NAME><OBJECT_ID>1998-007C</OBJECT_ID><CENTER_NAME>EARTH</CENTER_NAME><REF_FRAME>TEME</REF_FRAME><TIME_SYSTEM>UTC</TIME_SYSTEM><MEAN_ELEMENT_THEORY>SGP4</MEAN_ELEMENT_THEORY></metadata><data><meanElements><EPOCH>2025-05-17T12:00:24.150528</EPOCH><MEAN_MOTION>14.34690214</MEAN_MOTION><ECCENTRICITY>.0042501</ECCENTRICITY><INCLINATION>107.9637</INCLINATION><RA_OF_ASC_NODE>75.7650</RA_OF_ASC_NODE><ARG_OF_PERICENTER>299.8158</ARG_OF_PERICENTER><MEAN_ANOMALY>59.8760</MEAN_ANOMALY></meanElements><tleParameters><EPHEMERIS_TYPE>0</EPHEMERIS_TYPE><CLASSIFICATION_TYPE>U</CLASSIFICATION_TYPE><NORAD_CAT_ID>25159</NORAD_CAT_ID><ELEMENT_SET_NO>999</ELEMENT_SET_NO><REV_AT_EPOCH>41982</REV_AT_EPOCH><BSTAR>.51142E-3</BSTAR><MEAN_MOTION_DOT>.1332E-4</MEAN_MOTION_DOT><MEAN_MOTION_DDOT>0</MEAN_MOTION_DDOT></tleParameters></data></segment></body></omm>
<omm id="CCSDS_OMM_VERS" version="2.0">
<header><CREATION_DATE/><ORIGINATOR/></header><body><segment><metadata><OBJECT_NAME>ORBCOMM FM17</OBJECT_NAME><OBJECT_ID>1998-046A</OBJECT_ID><CENTER_NAME>EARTH</CENTER_NAME><REF_FRAME>TEME</REF_FRAME><TIME_SYSTEM>UTC</TIME_SYSTEM><MEAN_ELEMENT_THEORY>SGP4</MEAN_ELEMENT_THEORY></metadata><data><meanElements><EPOCH>2025-05-17T10:04:08.703552</EPOCH><MEAN_MOTION>14.35044790</MEAN_MOTION><ECCENTRICITY>.0003286</ECCENTRICITY><INCLINATION>44.9956</INCLINATION><RA_OF_ASC_NODE>42.8063</RA_OF_ASC_NODE><ARG_OF_PERICENTER>36.9661</ARG_OF_PERICENTER><MEAN_ANOMALY>323.1412</MEAN_ANOMALY></meanElements><tleParameters><EPHEMERIS_TYPE>0</EPHEMERIS_TYPE><CLASSIFICATION_TYPE>U</CLASSIFICATION_TYPE><NORAD_CAT_ID>25413</NORAD_CAT_ID><ELEMENT_SET_NO>999</ELEMENT_SET_NO><REV_AT_EPOCH>39875</REV_AT_EPOCH><BSTAR>.4254E-3</BSTAR><MEAN_MOTION_DOT>.1082E-4</MEAN_MOTION_DOT><MEAN_MOTION_DDOT>0</MEAN_MOTION_DDOT></tleParameters></data></segment></body></omm>
<omm id="CCSDS_OMM_VERS" version="2.0">
<header><CREATION_DATE/><ORIGINATOR/></header><body><segment><metadata><OBJECT_NAME>ORBCOMM FM18</OBJECT_NAME><OBJECT_ID>1998-046B</OBJECT_ID><CENTER_NAME>EARTH</CENTER_NAME><REF_FRAME>TEME</REF_FRAME><TIME_SYSTEM>UTC</TIME_SYSTEM><MEAN_ELEMENT_THEORY>SGP4</MEAN_ELEMENT_THEORY></metadata><data><meanElements><EPOCH>2025-05-17T12:21:38.636064</EPOCH><MEAN_MOTION>14.38488880</MEAN_MOTION><ECCENTRICITY>.0005222</ECCENTRICITY><INCLINATION>44.9940</INCLINATION><RA_OF_ASC_NODE>320.5724</RA_OF_ASC_NODE><ARG_OF_PERICENTER>131.0410</ARG_OF_PERICENTER><MEAN_ANOMALY>229.0890</MEAN_ANOMALY></meanElements><tleParameters><EPHEMERIS_TYPE>0</EPHEMERIS_TYPE><CLASSIFICATION_TYPE>U</CLASSIFICATION_TYPE><NORAD_CAT_ID>25414</NORAD_CAT_ID><ELEMENT_SET_NO>999</ELEMENT_SET_NO><REV_AT_EPOCH>39983</REV_AT_EPOCH><BSTAR>.52016E-3</BSTAR><MEAN_MOTION_DOT>.1462E-4</MEAN_MOTION_DOT><MEAN_MOTION_DDOT>0</MEAN_MOTION_DDOT></tleParameters></data></segment></body></omm>
<omm id="CCSDS_OMM_VERS" version="2.0">
<header><CREATION_DATE/><ORIGINATOR/></header><body><segment><metadata><OBJECT_NAME>ORBCOMM FM19</OBJECT_NAME><OBJECT_ID>1998-046C</OBJECT_ID><CENTER_NAME>EARTH</CENTER_NAME><REF_FRAME>TEME</REF_FRAME><TIME_SYSTEM>UTC</TIME_SYSTEM><MEAN_ELEMENT_THEORY>SGP4</MEAN_ELEMENT_THEORY></metadata><data><meanElements><EPOCH>2025-05-17T12:48:06.071904</EPOCH><MEAN_MOTION>14.38296167</MEAN_MOTION><ECCENTRICITY>.0003967</ECCENTRICITY><INCLINATION>44.9952</INCLINATION><RA_OF_ASC_NODE>322.4362</RA_OF_ASC_NODE><ARG_OF_PERICENTER>125.6445</ARG_OF_PERICENTER><MEAN_ANOMALY>266.6438</MEAN_ANOMALY></meanElements><tleParameters><EPHEMERIS_TYPE>0</EPHEMERIS_TYPE><CLASSIFICATION_TYPE>U</CLASSIFICATION_TYPE><NORAD_CAT_ID>25415</NORAD_CAT_ID><ELEMENT_SET_NO>999</ELEMENT_SET_NO><REV_AT_EPOCH>39999</REV_AT_EPOCH><BSTAR>.51692E-3</BSTAR><MEAN_MOTION_DOT>.1445E-4</MEAN_MOTION_DOT><MEAN_MOTION_DDOT>0</MEAN_MOTION_DDOT></tleParameters></data></segment></body></omm>

</ndm>
